OBJECT_NAME,OBJECT_ID,EPOCH,MEAN_MOTION,ECCENTRICITY,INCLINATION,RA_OF_ASC_NODE,ARG_OF_PERICENTER,MEAN_ANOMALY,EPHEMERIS_TYPE,CLASSIFICATION_TYPE,NORAD_CAT_ID,ELEMENT_SET_NO,REV_AT_EPOCH,BSTAR,MEAN_MOTION_DOT,MEAN_MOTION_DDOT
JILIN-1 07,2018-008E,2026-07-20T14:24:24.344064,15.35217273,.00063039,97.1771,220.6481,303.8399,56.2244,0,U,43159,999,47012,.15514372E-3,.5229E-4,0
JILIN-1 08,2018-008F,2026-07-20T13:25:13.343808,15.34046110,.000469,97.1806,219.8862,330.1608,29.9367,0,U,43160,999,47006,.10983456E-3,.3542E-4,0
S-NET D,2018-014G,2026-07-20T07:32:53.435040,15.16944165,.00062121,97.5322,105.8991,262.4252,97.6276,0,U,43186,999,46378,.13052769E-3,.2508E-4,0
S-NET B,2018-014H,2026-07-20T06:15:20.096928,15.16912944,.00068835,97.5327,105.8332,256.9960,103.0504,0,U,43187,999,46377,.12724272E-3,.2441E-4,0
S-NET A,2018-014J,2026-07-20T07:31:00.721056,15.16952194,.00067477,97.5338,106.1006,257.5646,102.4832,0,U,43188,999,46378,.12830937E-3,.2464E-4,0
S-NET C,2018-014K,2026-07-20T06:21:10.546560,15.16904453,.00081926,97.5353,106.1320,248.9811,111.0546,0,U,43189,999,46232,.13471694E-3,.2588E-4,0
PAZ,2018-020A,2026-07-20T13:38:03.939360,15.19154213,.00016713,97.4458,208.4801,88.3893,271.7533,0,U,43215,999,46607,.48899526E-4,.96E-5,0
GOES 17,2018-022A,2026-07-20T10:59:33.124128,1.00272190,.00005855,1.0205,85.1844,60.2896,228.1441,0,U,43226,999,3075,0,-.184E-5,0
LKW-4,2018-025A,2026-07-20T10:07:07.241376,15.64839087,.00036545,97.6366,14.9722,168.4809,191.6534,0,U,43236,999,46522,.29798804E-3,.2897E-3,0
ZHUHAI-1 OVS-02,2018-040B,2026-07-20T14:59:55.358592,15.25418431,.00054506,97.0388,216.8787,122.5393,237.6373,0,U,43440,999,45781,.16118352E-3,.4007E-4,0
ZHUHAI-1 OHS-02,2018-040C,2026-07-20T14:10:51.271680,15.26313765,.00114425,97.0364,223.8195,109.3286,250.9192,0,U,43441,999,11937,.17945726E-3,.4598E-4,0
GAOFEN-6,2018-048A,2026-07-20T14:50:27.841056,14.76389205,.00120208,98.0948,264.3331,66.4971,293.7500,0,U,43484,999,43832,.12734965E-3,.833E-5,0
LUOJIA-1 01,2018-048B,2026-07-20T14:38:27.126816,14.87389001,.00093357,97.8091,279.2617,21.2952,338.8651,0,U,43485,999,43918,.33097028E-4,.245E-5,0
PAKTES 1A,2018-056A,2026-07-20T13:51:23.561856,14.99217193,.00195131,98.1307,359.4900,3.8574,356.2795,0,U,43529,999,43692,.80528185E-4,.919E-5,0
PRSS-1,2018-056B,2026-07-20T14:39:35.113248,14.82033870,.00012886,97.7799,268.5530,91.3648,268.7713,0,U,43530,999,43338,.98634744E-4,.732E-5,0
HAIYANG-1C,2018-068A,2026-07-20T14:14:13.195392,14.34188814,.00108256,98.5172,273.4163,2.7411,357.3831,0,U,43609,999,41187,.14475696E-3,.362E-5,0
SSTL S1-4,2018-071A,2026-07-20T14:15:40.421376,14.96213200,.00027519,97.4982,71.8098,89.4462,270.7076,0,U,43618,999,42793,.94008198E-4,.1005E-4,0
HAIYANG-2B,2018-081A,2026-07-20T14:28:49.877184,13.79306900,.0001152,99.3294,209.8561,140.8989,219.2246,0,U,43655,999,38953,.6245381E-4,.2E-6,0
CFOSAT,2018-083A,2026-07-20T14:45:10.454112,15.16313987,.00015573,97.3618,205.1635,38.3168,321.8175,0,U,43662,999,42750,.94802091E-4,.1772E-4,0
TEN-KOH,2018-084G,2026-07-20T11:27:46.539936,15.03063184,.00096086,98.0770,35.2429,15.5063,344.6454,0,U,43677,999,42116,.10547421E-3,.1356E-4,0
DIWATA-2B,2018-084H,2026-07-20T13:53:36.949632,15.00574758,.00125286,98.1218,39.2503,67.7258,292.5291,0,U,43678,999,42122,.84194626E-4,.998E-5,0
STARS-AO,2018-084J,2026-07-20T07:30:32.922720,15.17376376,.0003455,98.0472,57.3286,70.5589,289.6016,0,U,43679,999,42249,.15179567E-3,.2956E-4,0
AUTCUBE 2,2018-084K,2026-07-20T02:15:42.326496,15.10283192,.0007586,98.0689,49.0146,295.6444,64.4000,0,U,43681,999,42189,.10553058E-3,.1657E-4,0
METOP-C,2018-087A,2026-07-20T13:44:15.916416,14.21503814,.00021036,98.6625,260.5626,86.8451,273.2967,0,U,43689,999,39957,.38477946E-4,.41E-6,0
ES'HAIL 2,2018-090A,2026-07-20T08:07:04.463904,1.00274071,.00024517,0.0208,80.1003,77.6851,287.8888,0,U,43700,999,2800,0,.143E-5,0
MOHAMMED VI-B,2018-095A,2026-07-20T13:46:09.331104,14.77086892,.00018151,97.9539,273.4363,92.3917,267.7501,0,U,43717,999,41311,.11984259E-3,.795E-5,0
HYSIS,2018-096A,2026-07-20T13:45:00.384768,14.78677139,.00017762,97.9820,268.0567,83.0223,277.1190,0,U,43719,999,41235,.10230691E-3,.698E-5,0
COSMOS 2530 (RODNIK-S 16),2018-097A,2026-07-20T14:55:50.927808,12.42881569,.00187267,82.5128,201.5300,326.7825,33.2078,0,U,43751,999,34644,-.82296138E-3,-.104E-5,0
COSMOS 2531 (RODNIK-S 17),2018-097B,2026-07-20T15:26:43.912320,12.42912997,.00163293,82.5172,202.5864,347.1014,12.9645,0,U,43752,999,34646,-.53200683E-3,-.64E-6,0
