JILIN-1 07              
1 43159U 18008E   26201.60028176  .00005229  00000+0  15514-3 0  9996
2 43159  97.1771 220.6481 0006303 303.8399  56.2244 15.35217273470129
JILIN-1 08              
1 43160U 18008F   26201.55918222  .00003542  00000+0  10983-3 0  9993
2 43160  97.1806 219.8862 0004690 330.1608  29.9367 15.34046110470061
S-NET D                 
1 43186U 18014G   26201.31450735  .00002508  00000+0  13053-3 0  9994
2 43186  97.5322 105.8991 0006212 262.4252  97.6276 15.16944165463786
S-NET B                 
1 43187U 18014H   26201.26064927  .00002441  00000+0  12724-3 0  9993
2 43187  97.5327 105.8332 0006883 256.9960 103.0504 15.16912944463774
S-NET A                 
1 43188U 18014J   26201.31320279  .00002464  00000+0  12831-3 0  9999
2 43188  97.5338 106.1006 0006747 257.5646 102.4832 15.16952194463785
S-NET C                 
1 43189U 18014K   26201.26470540  .00002588  00000+0  13472-3 0  9990
2 43189  97.5353 106.1320 0008192 248.9811 111.0546 15.16904453462328
PAZ                     
1 43215U 18020A   26201.56810115  .00000960  00000+0  48900-4 0  9993
2 43215  97.4458 208.4801 0001671  88.3893 271.7533 15.19154213466074
GOES 17                 
1 43226U 18022A   26201.45802227 -.00000184  00000+0  00000+0 0  9993
2 43226   1.0205  85.1844 0000585  60.2896 228.1441  1.00272190 30755
LKW-4                   
1 43236U 18025A   26201.42161159  .00028970  00000+0  29799-3 0  9998
2 43236  97.6366  14.9722 0003654 168.4809 191.6534 15.64839087465225
ZHUHAI-1 OVS-02         
1 43440U 18040B   26201.62494628  .00004007  00000+0  16118-3 0  9990
2 43440  97.0388 216.8787 0005450 122.5393 237.6373 15.25418431457810
ZHUHAI-1 OHS-02         
1 43441U 18040C   26201.59087120  .00004598  00000+0  17946-3 0  9997
2 43441  97.0364 223.8195 0011442 109.3286 250.9192 15.26313765119376
GAOFEN-6                
1 43484U 18048A   26201.61837779  .00000833  00000+0  12735-3 0  9997
2 43484  98.0948 264.3331 0012020  66.4971 293.7500 14.76389205438324
LUOJIA-1 01             
1 43485U 18048B   26201.61003619  .00000245  00000+0  33097-4 0  9998
2 43485  97.8091 279.2617 0009335  21.2952 338.8651 14.87389001439185
PAKTES 1A               
1 43529U 18056A   26201.57735604  .00000919  00000+0  80528-4 0  9996
2 43529  98.1307 359.4900 0019513   3.8574 356.2795 14.99217193436926
PRSS-1                  
1 43530U 18056B   26201.61082307  .00000732  00000+0  98635-4 0  9999
2 43530  97.7799 268.5530 0001288  91.3648 268.7713 14.82033870433385
HAIYANG-1C              
1 43609U 18068A   26201.59320828  .00000362  00000+0  14476-3 0  9998
2 43609  98.5172 273.4163 0010825   2.7411 357.3831 14.34188814411876
SSTL S1-4               
1 43618U 18071A   26201.59421784  .00001005  00000+0  94008-4 0  9990
2 43618  97.4982  71.8098 0002751  89.4462 270.7076 14.96213200427936
HAIYANG-2B              
1 43655U 18081A   26201.60335506  .00000020  00000+0  62454-4 0  9996
2 43655  99.3294 209.8561 0001152 140.8989 219.2246 13.79306900389532
CFOSAT                  
1 43662U 18083A   26201.61470433  .00001772  00000+0  94802-4 0  9993
2 43662  97.3618 205.1635 0001557  38.3168 321.8175 15.16313987427505
TEN-KOH                 
1 43677U 18084G   26201.47762199  .00001356  00000+0  10547-3 0  9998
2 43677  98.0770  35.2429 0009608  15.5063 344.6454 15.03063184421163
DIWATA-2B               
1 43678U 18084H   26201.57889988  .00000998  00000+0  84195-4 0  9998
2 43678  98.1218  39.2503 0012528  67.7258 292.5291 15.00574758421227
STARS-AO                
1 43679U 18084J   26201.31288105  .00002956  00000+0  15180-3 0  9998
2 43679  98.0472  57.3286 0003455  70.5589 289.6016 15.17376376422492
AUTCUBE 2               
1 43681U 18084K   26201.09423989  .00001657  00000+0  10553-3 0  9993
2 43681  98.0689  49.0146 0007586 295.6444  64.4000 15.10283192421898
METOP-C                 
1 43689U 18087A   26201.57240644  .00000041  00000+0  38478-4 0  9995
2 43689  98.6625 260.5626 0002103  86.8451 273.2967 14.21503814399571
ES'HAIL 2               
1 43700U 18090A   26201.33824611  .00000143  00000+0  00000+0 0  9997
2 43700   0.0208  80.1003 0002451  77.6851 287.8888  1.00274071 28005
MOHAMMED VI-B           
1 43717U 18095A   26201.57371911  .00000795  00000+0  11984-3 0  9996
2 43717  97.9539 273.4363 0001815  92.3917 267.7501 14.77086892413110
HYSIS                   
1 43719U 18096A   26201.57292112  .00000698  00000+0  10231-3 0  9990
2 43719  97.9820 268.0567 0001776  83.0223 277.1190 14.78677139412359
COSMOS 2530 (RODNIK-S *)
1 43751U 18097A   26201.62211722 -.00000104  00000+0 -82296-3 0  9995
2 43751  82.5128 201.5300 0018726 326.7825  33.2078 12.42881569346446
COSMOS 2531 (RODNIK-S *)
1 43752U 18097B   26201.64356380 -.00000064  00000+0 -53201-3 0  9997
2 43752  82.5172 202.5864 0016329 347.1014  12.9645 12.42912997346462
